{
  "type": "FeatureCollection",
  "features": [
    {
      "type": "Feature",
      "properties": {
        "norad_id": 34481,
        "name": "COSMOS 2251 DEB",
        "group": "cosmos-2251-debris",
        "lat": -6.260014510920333,
        "lon": -137.33594185174627,
        "alt_km": 741.6179592300896,
        "timestamp": "2025-12-19T14:48:36.642588+00:00",
        "meta_object_name": "COSMOS 2251 DEB",
        "meta_object_id": "1993-036UA",
        "meta_epoch": "2025-12-18T09:31:28.100928",
        "meta_mean_motion": 14.32570922,
        "meta_eccentricity": 0.0070547,
        "meta_inclination": 73.9796,
        "meta_ra_of_asc_node": 43.0926,
        "meta_arg_of_pericenter": 216.3849,
        "meta_mean_anomaly": 159.8119,
        "meta_ephemeris_type": 0,
        "meta_classification_type": "U",
        "meta_norad_cat_id": 34481,
        "meta_element_set_no": 999,
        "meta_rev_at_epoch": 87530,
        "meta_bstar": 0.00051303593,
        "meta_mean_motion_dot": 1.405e-05,
        "meta_mean_motion_ddot": 0,
        "tle_line1": "1 34481U 93036UA  25352.39685302  .00001405  00000+0  51304-3 0  9999",
        "tle_line2": "2 34481  73.9796  43.0926 0070547 216.3849 159.8119 14.32570922875305"
      },
      "geometry": {
        "type": "Point",
        "coordinates": [
          -137.33594185174627,
          -6.260014510920333
        ]
      }
    },
    {
      "type": "Feature",
      "properties": {
        "norad_id": 34482,
        "name": "COSMOS 2251 DEB",
        "group": "cosmos-2251-debris",
        "lat": -4.1311430872268495,
        "lon": 31.459548111273413,
        "alt_km": 663.4206095211048,
        "timestamp": "2025-12-19T14:48:36.642599+00:00",
        "meta_object_name": "COSMOS 2251 DEB",
        "meta_object_id": "1993-036UB",
        "meta_epoch": "2025-12-19T01:35:20.190624",
        "meta_mean_motion": 14.69302815,
        "meta_eccentricity": 0.00446477,
        "meta_inclination": 74.0361,
        "meta_ra_of_asc_node": 211.3413,
        "meta_arg_of_pericenter": 270.1268,
        "meta_mean_anomaly": 241.8622,
        "meta_ephemeris_type": 0,
        "meta_classification_type": "U",
        "meta_norad_cat_id": 34482,
        "meta_element_set_no": 999,
        "meta_rev_at_epoch": 88280,
        "meta_bstar": 0.0012618865,
        "meta_mean_motion_dot": 7.539e-05,
        "meta_mean_motion_ddot": 0,
        "tle_line1": "1 34482U 93036UB  25353.06620591  .00007539  00000+0  12619-2 0  9993",
        "tle_line2": "2 34482  74.0361 211.3413 0044647 270.1268 241.8622 14.69302815882800"
      },
      "geometry": {
        "type": "Point",
        "coordinates": [
          31.459548111273413,
          -4.1311430872268495
        ]
      }
    },
    {
      "type": "Feature",
      "properties": {
        "norad_id": 34544,
        "name": "COSMOS 2251 DEB",
        "group": "cosmos-2251-debris",
        "lat": 63.238662382581836,
        "lon": -22.006928875189608,
        "alt_km": 1128.8781724256469,
        "timestamp": "2025-12-19T14:48:36.642609+00:00",
        "meta_object_name": "COSMOS 2251 DEB",
        "meta_object_id": "1993-036UE",
        "meta_epoch": "2025-12-19T00:51:44.773632",
        "meta_mean_motion": 13.54667725,
        "meta_eccentricity": 0.03838358,
        "meta_inclination": 73.914,
        "meta_ra_of_asc_node": 193.8359,
        "meta_arg_of_pericenter": 221.1208,
        "meta_mean_anomaly": 301.5881,
        "meta_ephemeris_type": 0,
        "meta_classification_type": "U",
        "meta_norad_cat_id": 34544,
        "meta_element_set_no": 999,
        "meta_rev_at_epoch": 82967,
        "meta_bstar": 0.00032315297,
        "meta_mean_motion_dot": 3.31e-06,
        "meta_mean_motion_ddot": 0,
        "tle_line1": "1 34544U 93036UE  25353.03593488  .00000331  00000+0  32315-3 0  9992",
        "tle_line2": "2 34544  73.9140 193.8359 0383835 221.1208 301.5881 13.54667725829674"
      },
      "geometry": {
        "type": "Point",
        "coordinates": [
          -22.006928875189608,
          63.238662382581836
        ]
      }
    },
    {
      "type": "Feature",
      "properties": {
        "norad_id": 34546,
        "name": "COSMOS 2251 DEB",
        "group": "cosmos-2251-debris",
        "lat": 28.535446912377253,
        "lon": 47.40554094100736,
        "alt_km": 753.5848171629104,
        "timestamp": "2025-12-19T14:48:36.642620+00:00",
        "meta_object_name": "COSMOS 2251 DEB",
        "meta_object_id": "1993-036UG",
        "meta_epoch": "2025-12-18T20:25:38.919360",
        "meta_mean_motion": 14.45436583,
        "meta_eccentricity": 0.00220233,
        "meta_inclination": 74.0309,
        "meta_ra_of_asc_node": 237.7908,
        "meta_arg_of_pericenter": 310.9498,
        "meta_mean_anomaly": 175.2081,
        "meta_ephemeris_type": 0,
        "meta_classification_type": "U",
        "meta_norad_cat_id": 34546,
        "meta_element_set_no": 999,
        "meta_rev_at_epoch": 88114,
        "meta_bstar": 0.00043280851,
        "meta_mean_motion_dot": 1.502e-05,
        "meta_mean_motion_ddot": 0,
        "tle_line1": "1 34546U 93036UG  25352.85114490  .00001502  00000+0  43281-3 0  9990",
        "tle_line2": "2 34546  74.0309 237.7908 0022023 310.9498 175.2081 14.45436583881145"
      },
      "geometry": {
        "type": "Point",
        "coordinates": [
          47.40554094100736,
          28.535446912377253
        ]
      }
    },
    {
      "type": "Feature",
      "properties": {
        "norad_id": 34547,
        "name": "COSMOS 2251 DEB",
        "group": "cosmos-2251-debris",
        "lat": -67.03190642508596,
        "lon": 44.83306637026009,
        "alt_km": 666.0076200105614,
        "timestamp": "2025-12-19T14:48:36.642631+00:00",
        "meta_object_name": "COSMOS 2251 DEB",
        "meta_object_id": "1993-036UH",
        "meta_epoch": "2025-12-18T22:50:15.370656",
        "meta_mean_motion": 14.72476564,
        "meta_eccentricity": 0.00166938,
        "meta_inclination": 74.0316,
        "meta_ra_of_asc_node": 88.6306,
        "meta_arg_of_pericenter": 167.5365,
        "meta_mean_anomaly": 192.6223,
        "meta_ephemeris_type": 0,
        "meta_classification_type": "U",
        "meta_norad_cat_id": 34547,
        "meta_element_set_no": 999,
        "meta_rev_at_epoch": 88613,
        "meta_bstar": 0.0013141249,
        "meta_mean_motion_dot": 8.336e-05,
        "meta_mean_motion_ddot": 0,
        "tle_line1": "1 34547U 93036UH  25352.95156679  .00008336  00000+0  13141-2 0  9990",
        "tle_line2": "2 34547  74.0316  88.6306 0016693 167.5365 192.6223 14.72476564886132"
      },
      "geometry": {
        "type": "Point",
        "coordinates": [
          44.83306637026009,
          -67.03190642508596
        ]
      }
    },
    {
      "type": "Feature",
      "properties": {
        "norad_id": 34553,
        "name": "COSMOS 2251 DEB",
        "group": "cosmos-2251-debris",
        "lat": -0.10182970710755473,
        "lon": -1.1638181768562783,
        "alt_km": 699.5625079568317,
        "timestamp": "2025-12-19T14:48:36.642642+00:00",
        "meta_object_name": "COSMOS 2251 DEB",
        "meta_object_id": "1993-036UP",
        "meta_epoch": "2025-12-18T15:14:08.118816",
        "meta_mean_motion": 14.57775047,
        "meta_eccentricity": 0.00191427,
        "meta_inclination": 74.0239,
        "meta_ra_of_asc_node": 180.6753,
        "meta_arg_of_pericenter": 257.537,
        "meta_mean_anomaly": 169.798,
        "meta_ephemeris_type": 0,
        "meta_classification_type": "U",
        "meta_norad_cat_id": 34553,
        "meta_element_set_no": 999,
        "meta_rev_at_epoch": 88182,
        "meta_bstar": 0.00079077117,
        "meta_mean_motion_dot": 3.597e-05,
        "meta_mean_motion_ddot": 0,
        "tle_line1": "1 34553U 93036UP  25352.63481619  .00003597  00000+0  79077-3 0  9992",
        "tle_line2": "2 34553  74.0239 180.6753 0019142 257.5370 169.7980 14.57775047881827"
      },
      "geometry": {
        "type": "Point",
        "coordinates": [
          -1.1638181768562783,
          -0.10182970710755473
        ]
      }
    },
    {
      "type": "Feature",
      "properties": {
        "norad_id": 34554,
        "name": "COSMOS 2251 DEB",
        "group": "cosmos-2251-debris",
        "lat": 22.76335532605973,
        "lon": 99.43150537144076,
        "alt_km": 780.8328420474118,
        "timestamp": "2025-12-19T14:48:36.642653+00:00",
        "meta_object_name": "COSMOS 2251 DEB",
        "meta_object_id": "1993-036UQ",
        "meta_epoch": "2025-12-18T13:50:31.745184",
        "meta_mean_motion": 14.37950273,
        "meta_eccentricity": 0.00232506,
        "meta_inclination": 74.0391,
        "meta_ra_of_asc_node": 288.2435,
        "meta_arg_of_pericenter": 349.3985,
        "meta_mean_anomaly": 183.4669,
        "meta_ephemeris_type": 0,
        "meta_classification_type": "U",
        "meta_norad_cat_id": 34554,
        "meta_element_set_no": 999,
        "meta_rev_at_epoch": 87839,
        "meta_bstar": 0.00025927252,
        "meta_mean_motion_dot": 7.59e-06,
        "meta_mean_motion_ddot": 0,
        "tle_line1": "1 34554U 93036UQ  25352.57675631  .00000759  00000+0  25927-3 0  9997",
        "tle_line2": "2 34554  74.0391 288.2435 0023250 349.3985 183.4669 14.37950273878395"
      },
      "geometry": {
        "type": "Point",
        "coordinates": [
          99.43150537144076,
          22.76335532605973
        ]
      }
    }
  ]
}